CCSDS_OMM_VERS = 2.0
CREATION_DATE  = 
ORIGINATOR     = 

OBJECT_NAME    = STARLINK-35761
OBJECT_ID      = 2025-288C
CENTER_NAME    = EARTH
REF_FRAME      = TEME
TIME_SYSTEM    = UTC
MEAN_ELEMENT_THEORY = SGP/SGP4

EPOCH          = 2026-01-04T06:00:02.000160
MEAN_MOTION    = 15.40688775
ECCENTRICITY   = .00009385
INCLINATION    = 43.0004
RA_OF_ASC_NODE = 32.4009
ARG_OF_PERICENTER = 234.0920
MEAN_ANOMALY   = 146.8297

EPHEMERIS_TYPE = 0
CLASSIFICATION_TYPE = U
NORAD_CAT_ID   = 66961
ELEMENT_SET_NO = 999
REV_AT_EPOCH   = 544
BSTAR          = .45575754E-3
MEAN_MOTION_DOT = .18774E-3
MEAN_MOTION_DDOT = 0

CCSDS_OMM_VERS = 2.0
CREATION_DATE  = 
ORIGINATOR     = 

OBJECT_NAME    = STARLINK-35874
OBJECT_ID      = 2025-288D
CENTER_NAME    = EARTH
REF_FRAME      = TEME
TIME_SYSTEM    = UTC
MEAN_ELEMENT_THEORY = SGP/SGP4

EPOCH          = 2026-01-04T02:24:41.713920
MEAN_MOTION    = 15.50588342
ECCENTRICITY   = .00012932
INCLINATION    = 43.0005
RA_OF_ASC_NODE = 33.0436
ARG_OF_PERICENTER = 253.3947
MEAN_ANOMALY   = 106.6772

EPHEMERIS_TYPE = 0
CLASSIFICATION_TYPE = U
NORAD_CAT_ID   = 66962
ELEMENT_SET_NO = 999
REV_AT_EPOCH   = 535
BSTAR          = .19827137E-2
MEAN_MOTION_DOT = .117779E-2
MEAN_MOTION_DDOT = 0

CCSDS_OMM_VERS = 2.0
CREATION_DATE  = 
ORIGINATOR     = 

OBJECT_NAME    = STARLINK-36133
OBJECT_ID      = 2025-288E
CENTER_NAME    = EARTH
REF_FRAME      = TEME
TIME_SYSTEM    = UTC
MEAN_ELEMENT_THEORY = SGP/SGP4

EPOCH          = 2026-01-04T02:24:11.842848
MEAN_MOTION    = 15.50608514
ECCENTRICITY   = .0001362
INCLINATION    = 43.0002
RA_OF_ASC_NODE = 33.0410
ARG_OF_PERICENTER = 255.8653
MEAN_ANOMALY   = 104.2056

EPHEMERIS_TYPE = 0
CLASSIFICATION_TYPE = U
NORAD_CAT_ID   = 66963
ELEMENT_SET_NO = 999
REV_AT_EPOCH   = 535
BSTAR          = .2337556E-2
MEAN_MOTION_DOT = .139407E-2
MEAN_MOTION_DDOT = 0

CCSDS_OMM_VERS = 2.0
CREATION_DATE  = 
ORIGINATOR     = 

OBJECT_NAME    = STARLINK-36104
OBJECT_ID      = 2025-288F
CENTER_NAME    = EARTH
REF_FRAME      = TEME
TIME_SYSTEM    = UTC
MEAN_ELEMENT_THEORY = SGP/SGP4

EPOCH          = 2026-01-03T09:23:51.686880
MEAN_MOTION    = 15.50614564
ECCENTRICITY   = .00011758
INCLINATION    = 43.0002
RA_OF_ASC_NODE = 37.1830
ARG_OF_PERICENTER = 251.1223
MEAN_ANOMALY   = 108.9510

EPHEMERIS_TYPE = 0
CLASSIFICATION_TYPE = U
NORAD_CAT_ID   = 66964
ELEMENT_SET_NO = 999
REV_AT_EPOCH   = 524
BSTAR          = .31070829E-2
MEAN_MOTION_DOT = .186583E-2
MEAN_MOTION_DDOT = 0

CCSDS_OMM_VERS = 2.0
CREATION_DATE  = 
ORIGINATOR     = 

OBJECT_NAME    = STARLINK-36067
OBJECT_ID      = 2025-288G
CENTER_NAME    = EARTH
REF_FRAME      = TEME
TIME_SYSTEM    = UTC
MEAN_ELEMENT_THEORY = SGP/SGP4

EPOCH          = 2026-01-04T06:00:02.000160
MEAN_MOTION    = 15.40682697
ECCENTRICITY   = .00013694
INCLINATION    = 43.0010
RA_OF_ASC_NODE = 32.4912
ARG_OF_PERICENTER = 266.3000
MEAN_ANOMALY   = 77.3111

EPHEMERIS_TYPE = 0
CLASSIFICATION_TYPE = U
NORAD_CAT_ID   = 66965
ELEMENT_SET_NO = 999
REV_AT_EPOCH   = 544
BSTAR          = .5064984E-3
MEAN_MOTION_DOT = .209E-3
MEAN_MOTION_DDOT = 0

CCSDS_OMM_VERS = 2.0
CREATION_DATE  = 
ORIGINATOR     = 

OBJECT_NAME    = STARLINK-36139
OBJECT_ID      = 2025-288H
CENTER_NAME    = EARTH
REF_FRAME      = TEME
TIME_SYSTEM    = UTC
MEAN_ELEMENT_THEORY = SGP/SGP4

EPOCH          = 2026-01-03T09:22:22.779552
MEAN_MOTION    = 15.50583166
ECCENTRICITY   = .00011941
INCLINATION    = 43.0008
RA_OF_ASC_NODE = 37.1755
ARG_OF_PERICENTER = 265.8729
MEAN_ANOMALY   = 94.1994

EPHEMERIS_TYPE = 0
CLASSIFICATION_TYPE = U
NORAD_CAT_ID   = 66966
ELEMENT_SET_NO = 999
REV_AT_EPOCH   = 524
BSTAR          = .10872199E-3
MEAN_MOTION_DOT = .6042E-4
MEAN_MOTION_DDOT = 0

CCSDS_OMM_VERS = 2.0
CREATION_DATE  = 
ORIGINATOR     = 

OBJECT_NAME    = STARLINK-36136
OBJECT_ID      = 2025-288J
CENTER_NAME    = EARTH
REF_FRAME      = TEME
TIME_SYSTEM    = UTC
MEAN_ELEMENT_THEORY = SGP/SGP4

EPOCH          = 2026-01-03T10:54:40.107168
MEAN_MOTION    = 15.50492784
ECCENTRICITY   = .00029574
INCLINATION    = 43.0002
RA_OF_ASC_NODE = 36.7963
ARG_OF_PERICENTER = 279.5591
MEAN_ANOMALY   = 80.4935

EPHEMERIS_TYPE = 0
CLASSIFICATION_TYPE = U
NORAD_CAT_ID   = 66967
ELEMENT_SET_NO = 999
REV_AT_EPOCH   = 525
BSTAR          = .82795197E-3
MEAN_MOTION_DOT = .48386E-3
MEAN_MOTION_DDOT = 0

CCSDS_OMM_VERS = 2.0
CREATION_DATE  = 
ORIGINATOR     = 

OBJECT_NAME    = STARLINK-36152
OBJECT_ID      = 2025-288K
CENTER_NAME    = EARTH
REF_FRAME      = TEME
TIME_SYSTEM    = UTC
MEAN_ELEMENT_THEORY = SGP/SGP4

EPOCH          = 2026-01-04T02:21:42.664608
MEAN_MOTION    = 15.50646262
ECCENTRICITY   = .00012556
INCLINATION    = 43.0006
RA_OF_ASC_NODE = 33.0265
ARG_OF_PERICENTER = 262.1384
MEAN_ANOMALY   = 97.9334

EPHEMERIS_TYPE = 0
CLASSIFICATION_TYPE = U
NORAD_CAT_ID   = 66968
ELEMENT_SET_NO = 999
REV_AT_EPOCH   = 535
BSTAR          = .23222836E-2
MEAN_MOTION_DOT = .138667E-2
MEAN_MOTION_DDOT = 0

CCSDS_OMM_VERS = 2.0
CREATION_DATE  = 
ORIGINATOR     = 

OBJECT_NAME    = STARLINK-36149
OBJECT_ID      = 2025-288L
CENTER_NAME    = EARTH
REF_FRAME      = TEME
TIME_SYSTEM    = UTC
MEAN_ELEMENT_THEORY = SGP/SGP4

EPOCH          = 2026-01-04T06:10:45.279264
MEAN_MOTION    = 15.40686776
ECCENTRICITY   = .00014394
INCLINATION    = 43.0011
RA_OF_ASC_NODE = 32.5043
ARG_OF_PERICENTER = 280.4072
MEAN_ANOMALY   = 79.6622

EPHEMERIS_TYPE = 0
CLASSIFICATION_TYPE = U
NORAD_CAT_ID   = 66969
ELEMENT_SET_NO = 999
REV_AT_EPOCH   = 537
BSTAR          = .15223698E-2
MEAN_MOTION_DOT = .63795E-3
MEAN_MOTION_DDOT = 0

CCSDS_OMM_VERS = 2.0
CREATION_DATE  = 
ORIGINATOR     = 

OBJECT_NAME    = STARLINK-35703
OBJECT_ID      = 2025-288M
CENTER_NAME    = EARTH
REF_FRAME      = TEME
TIME_SYSTEM    = UTC
MEAN_ELEMENT_THEORY = SGP/SGP4

EPOCH          = 2026-01-04T02:17:23.017056
MEAN_MOTION    = 15.50189168
ECCENTRICITY   = .00039985
INCLINATION    = 43.0008
RA_OF_ASC_NODE = 33.0022
ARG_OF_PERICENTER = 234.0524
MEAN_ANOMALY   = 125.9966

EPHEMERIS_TYPE = 0
CLASSIFICATION_TYPE = U
NORAD_CAT_ID   = 66970
ELEMENT_SET_NO = 999
REV_AT_EPOCH   = 535
BSTAR          = .22138492E-2
MEAN_MOTION_DOT = .129921E-2
MEAN_MOTION_DDOT = 0

CCSDS_OMM_VERS = 2.0
CREATION_DATE  = 
ORIGINATOR     = 

OBJECT_NAME    = STARLINK-35678
OBJECT_ID      = 2025-288N
CENTER_NAME    = EARTH
REF_FRAME      = TEME
TIME_SYSTEM    = UTC
MEAN_ELEMENT_THEORY = SGP/SGP4

EPOCH          = 2026-01-04T02:21:14.188896
MEAN_MOTION    = 15.50612762
ECCENTRICITY   = .00012733
INCLINATION    = 43.0010
RA_OF_ASC_NODE = 33.0242
ARG_OF_PERICENTER = 247.6140
MEAN_ANOMALY   = 112.4585

EPHEMERIS_TYPE = 0
CLASSIFICATION_TYPE = U
NORAD_CAT_ID   = 66971
ELEMENT_SET_NO = 999
REV_AT_EPOCH   = 535
BSTAR          = .27534692E-2
MEAN_MOTION_DOT = .164836E-2
MEAN_MOTION_DDOT = 0

CCSDS_OMM_VERS = 2.0
CREATION_DATE  = 
ORIGINATOR     = 

OBJECT_NAME    = STARLINK-34846
OBJECT_ID      = 2025-288P
CENTER_NAME    = EARTH
REF_FRAME      = TEME
TIME_SYSTEM    = UTC
MEAN_ELEMENT_THEORY = SGP/SGP4

EPOCH          = 2026-01-04T06:00:02.000160
MEAN_MOTION    = 15.47444796
ECCENTRICITY   = .00013773
INCLINATION    = 43.0007
RA_OF_ASC_NODE = 32.1431
ARG_OF_PERICENTER = 281.1950
MEAN_ANOMALY   = 206.0276

EPHEMERIS_TYPE = 0
CLASSIFICATION_TYPE = U
NORAD_CAT_ID   = 66972
ELEMENT_SET_NO = 999
REV_AT_EPOCH   = 544
BSTAR          = -.44381956E-1
MEAN_MOTION_DOT = -.2071823E-1
MEAN_MOTION_DDOT = 0

